[{"OBJECT_NAME":"STARLINK-3567","OBJECT_ID":"2022-022V","EPOCH":"2026-03-09T05:12:26.354016","MEAN_MOTION":15.08840488,"ECCENTRICITY":0.00017614,"INCLINATION":53.2206,"RA_OF_ASC_NODE":11.2434,"ARG_OF_PERICENTER":84.8005,"MEAN_ANOMALY":275.3188,"EPHEMERIS_TYPE":0,"CLASSIFICATION_TYPE":"U","NORAD_CAT_ID":51871,"ELEMENT_SET_NO":999,"REV_AT_EPOCH":22315,"BSTAR":-5.4139838e-5,"MEAN_MOTION_DOT":-1.15e-5,"MEAN_MOTION_DDOT":0},{"OBJECT_NAME":"CZ-6A DEB","OBJECT_ID":"2022-151AEC","EPOCH":"2026-03-09T16:07:43.414464","MEAN_MOTION":15.01082395,"ECCENTRICITY":0.0040922,"INCLINATION":98.632,"RA_OF_ASC_NODE":144.2747,"ARG_OF_PERICENTER":190.1613,"MEAN_ANOMALY":169.8786,"EPHEMERIS_TYPE":0,"CLASSIFICATION_TYPE":"U","NORAD_CAT_ID":56604,"ELEMENT_SET_NO":999,"REV_AT_EPOCH":16341,"BSTAR":0.005850488,"MEAN_MOTION_DOT":0.00076879,"MEAN_MOTION_DDOT":0}]
